{
    "links": {
        "self": "http://www.neowsapp.com/rest/v1/neo/3476770?api_key=iIulBulltgU6a56xZRHN4H3l9WmuAYTsLGpBGhQ2"
    },
    "id": "3476770",
    "neo_reference_id": "3476770",
    "name": "(2009 VP44)",
    "designation": "2009 VP44",
    "nasa_jpl_url": "http://ssd.jpl.nasa.gov/sbdb.cgi?sstr=3476770",
    "absolute_magnitude_h": 25.9,
    "estimated_diameter": {
        "kilometers": {
            "estimated_diameter_min": 0.0175612318,
            "estimated_diameter_max": 0.0392681082
        },
        "meters": {
            "estimated_diameter_min": 17.561231848,
            "estimated_diameter_max": 39.2681081809
        },
        "miles": {
            "estimated_diameter_min": 0.0109120402,
            "estimated_diameter_max": 0.0244000636
        },
        "feet": {
            "estimated_diameter_min": 57.6155918963,
            "estimated_diameter_max": 128.8323800441
        }
    },
    "is_potentially_hazardous_asteroid": false,
    "close_approach_data": [
        {
            "close_approach_date": "2009-11-14",
            "close_approach_date_full": "2009-Nov-14 15:59",
            "epoch_date_close_approach": 1258214340000,
            "relative_velocity": {
                "kilometers_per_second": "14.5586143362",
                "kilometers_per_hour": "52411.0116104384",
                "miles_per_hour": "32566.1644087194"
            },
            "miss_distance": {
                "astronomical": "0.0309605783",
                "lunar": "12.0436649587",
                "kilometers": "4631636.567648221",
                "miles": "2877965.5101026098"
            },
            "orbiting_body": "Earth"
        }
    ],
    "orbital_data": {
        "orbit_id": "6",
        "orbit_determination_date": "2017-04-06 08:59:12",
        "first_observation_date": "2009-11-14",
        "last_observation_date": "2009-11-16",
        "data_arc_in_days": 2,
        "observations_used": 19,
        "orbit_uncertainty": "8",
        "minimum_orbit_intersection": ".0309605",
        "jupiter_tisserand_invariant": "3.112",
        "epoch_osculation": "2455150.5",
        "eccentricity": ".597820665638832",
        "semi_major_axis": "2.50578483825737",
        "inclination": "21.41580755975357",
        "ascending_node_longitude": "231.2932948522993",
        "orbital_period": "1448.818865959845",
        "perihelion_distance": "1.007774878302656",
        "perihelion_argument": "195.3157434368568",
        "aphelion_distance": "4.003794798212084",
        "perihelion_time": "2455161.817401528458",
        "mean_anomaly": "357.1878716891599",
        "mean_motion": ".2484782663024611",
        "equinox": "J2000",
        "orbit_class": {
            "orbit_class_type": "APO",
            "orbit_class_description": "Near-Earth asteroid orbits which cross the Earth’s orbit similar to that of 1862 Apollo",
            "orbit_class_range": "a (semi-major axis) > 1.0 AU; q (perihelion) < 1.017 AU"
        }
    },
    "is_sentry_object": false
}